ONEWEB-0283             
1 49001U 21060AL  24351.90724853 -.00000026  00000+0 -10270-3 0  9998
2 49001  87.9082 337.8288 0001656  78.4189 281.7128 13.16594571167605
ONEWEB-0284             
1 49002U 21060AM  24350.68495709  .00000092  00000+0  20668-3 0  9991
2 49002  87.9076 338.0452 0001741  93.8818 266.2512 13.16594163167422
ONEWEB-0285             
1 49075U 21075A   24351.75369597  .00000445  00000+0  12018-2 0  9992
2 49075  87.8881  99.6722 0001566 106.8644 253.2656 13.12445333163401
ONEWEB-0286             
1 49076U 21075B   24351.72515349 -.00000306  00000+0 -88664-3 0  9997
2 49076  87.8877  99.6745 0001857 105.3857 254.7477 13.12444249162754
ONEWEB-0287             
1 49077U 21075C   24350.60375316 -.00000022  00000+0 -90540-4 0  9994
2 49077  87.9099 115.1505 0001678 108.6820 251.4494 13.17651747162354
ONEWEB-0288             
1 49078U 21075D   24351.02524364 -.00000312  00000+0 -90284-3 0  9997
2 49078  87.8880  99.8171 0001662 110.0862 250.0445 13.12442198164272
ONEWEB-0289             
1 49079U 21075E   24351.08806154 -.00000010  00000+0 -59158-4 0  9995
2 49079  87.9099 115.0836 0001543 100.6278 259.5027 13.17648237162993
ONEWEB-0290             
1 49080U 21075F   24350.76744372 -.00000004  00000+0 -44397-4 0  9996
2 49080  87.9096 115.1059 0001053 124.9641 235.1590 13.17646620161391
